SL-14 R/B               
1 20511U 90018B   26168.14641227  .00000313  00000+0  36136-4 0  9996
2 20511  82.5210 130.1456 0017440 121.8458 238.4457 14.82216097937310
HST                     
1 20580U 90037B   26168.14321654  .00005620  00000+0  17616-3 0  9999
2 20580  28.4720  80.8753 0001816 141.8279 218.2446 15.30747004788561
SL-16 R/B               
1 20625U 90046B   26168.08955206  .00000116  00000+0  84629-4 0  9992
2 20625  70.9999  89.1530 0013351 161.9416 198.2184 14.15026589862456
COSMOS 2084             
1 20663U 90055A   26167.86230089  .00001734  00000+0  13175-3 0  9998
2 20663  62.7899 357.1999 0005580 278.3631  81.6837 15.06114812951255
SL-6 R/B(2)             
1 20666U 90055D   26167.65039418  .00001280  00000+0  10535-3 0  9994
2 20666  62.7824 277.2032 0040577   5.0638 355.0864 15.04001570953077
SL-8 R/B                
1 20775U 90078B   26168.06094992  .00022339  00000+0  62981-3 0  9994
2 20775  82.9013 161.7593 0350932  38.8925 323.6985 14.92315027824100
SL-8 R/B                
1 21088U 91006B   26168.05320513  .00000054  00000+0  38743-4 0  9994
2 21088  82.9425  96.1334 0023697 114.9116 256.1574 13.77505838777757
OKEAN-3                 
1 21397U 91039A   26168.13862333  .00002449  00000+0  16889-3 0  9999
2 21397  82.5157 240.4282 0014084 358.2998   1.8178 15.05323888879995
COSMOS 2151             
1 21422U 91042A   26168.12641487  .00001325  00000+0  10300-3 0  9990
2 21422  82.4960 347.7396 0013814  84.2278 276.0521 15.00438188878104
SL-14 R/B               
1 21423U 91042B   26168.15292961  .00000303  00000+0  35347-4 0  9997
2 21423  82.4927 126.9276 0015416 274.9741  84.9713 14.81902491867800
ERS-1                   
1 21574U 91050A   26168.02579706  .00000231  00000+0  88725-4 0  9992
2 21574  98.7797 188.7199 0030708 267.4481  92.3190 14.39517693830026
ARIANE 40 R/B           
1 21610U 91050F   26168.04902433  .00000231  00000+0  81612-4 0  9990
2 21610  98.1876 216.4713 0004247 121.8331 238.3274 14.42957047833322
INTERCOSMOS 25          
1 21819U 91086A   26167.94672588  .00000698  00000+0  13921-3 0  9997
2 21819  82.6051 249.9553 1484021 262.9134  80.1493 12.12195316508716
SL-8 R/B                
1 21876U 92008B   26168.12583433  .00000131  00000+0  11949-3 0  9996
2 21876  82.9262 193.8332 0033839 214.8614 206.2212 13.75976948723091
SL-8 R/B                
1 21938U 92020B   26168.04393071  .00000077  00000+0  63478-4 0  9991
2 21938  82.9305  79.9638 0029738  22.9756 348.0013 13.75548816714799
USA 81                  
1 21949U 92023A   26167.99542515  .00000149  00000+0  47613-4 0  9991
2 21949  85.0075  74.1181 0002756  84.6617 275.4890 14.32398117109000
COSMOS 2219             
1 22219U 92076A   26168.04914662  .00000267  00000+0  16482-3 0  9993
2 22219  71.0578 170.3603 0016593  44.4071 315.8378 14.14098939732421
SL-16 R/B               
1 22220U 92076B   26167.89755094  .00000195  00000+0  12118-3 0  9991
2 22220  71.0005 339.3913 0014650 299.0237 167.2300 14.16872130735885
COSMOS 2221             
1 22236U 92080A   26168.07215053  .00001163  00000+0  99876-4 0  9993
2 22236  82.5030 183.8748 0013254 212.5872 147.4534 14.96532903795658
SL-16 R/B               
1 22285U 92093B   26168.10110198 -.00000299  00000+0 -12878-3 0  9996
2 22285  71.0197 155.5721 0003973 188.5181 171.5875 14.15461261727221
COSMOS 2228             
1 22286U 92094A   26168.15450093  .00001677  00000+0  14103-3 0  9996
2 22286  82.5174 142.0740 0016896 332.4772  27.5554 14.97586340790949
SL-16 R/B               
1 22566U 93016B   26168.01050093  .00000267  00000+0  16149-3 0  9999
2 22566  71.0085   6.5786 0010206 183.7871 176.3176 14.15314120716221
COSMOS 2242             
1 22626U 93024A   26168.11392968  .00001356  00000+0  11562-3 0  9990
2 22626  82.5179 171.6130 0015353 336.5891  23.4630 14.96903136795262
SL-16 R/B               
1 22803U 93059B   26168.06643074 -.00000069  00000+0 -10316-4 0  9995
2 22803  70.9886 161.5582 0015200  54.1220 306.1312 14.17248297693611
ARIANE 40 R/B           
1 22830U 93061H   26168.06574034  .00000153  00000+0  71756-4 0  9994
2 22830  98.4819 234.9252 0010449 356.5074   3.6036 14.32907927708334
COSMOS 2278             
1 23087U 94023A   26168.17619178  .00000085  00000+0  69184-4 0  9995
2 23087  71.0549 326.9476 0010614 243.3000 116.7036 14.14398174658879
SL-16 R/B               
1 23088U 94023B   26167.89520095  .00000267  00000+0  16248-3 0  9997
2 23088  70.9993 222.5445 0002785 186.7796 173.3289 14.15025153660125
SL-16 R/B               
1 23343U 94074B   26168.07934916  .00000327  00000+0  50283-4 0  9994
2 23343  97.6990 194.8048 0005137 253.9370 165.4108 14.79502266701944
SL-16 R/B               
1 23405U 94077B   26168.19139684  .00000097  00000+0  73854-4 0  9991
2 23405  70.9809 143.1535 0002917 327.8513  32.2431 14.15572145630312
ARIANE 40+ R/B          
1 23561U 95021B   26168.12328542  .00000214  00000+0  81912-4 0  9995
2 23561  98.4412 238.1991 0006452 193.7933 224.4669 14.39833326633559
SL-16 R/B               
1 23705U 95058B   26167.84985140  .00000288  00000+0  17133-3 0  9990
2 23705  71.0220 332.0666 0013754 320.9664  39.0466 14.15508308581880
