OBJECT_NAME,OBJECT_ID,EPOCH,MEAN_MOTION,ECCENTRICITY,INCLINATION,RA_OF_ASC_NODE,ARG_OF_PERICENTER,MEAN_ANOMALY,EPHEMERIS_TYPE,CLASSIFICATION_TYPE,NORAD_CAT_ID,ELEMENT_SET_NO,REV_AT_EPOCH,BSTAR,MEAN_MOTION_DOT,MEAN_MOTION_DDOT
SL-14 R/B,1990-018B,2026-06-17T03:30:50.020128,14.82216097,.001744,82.5210,130.1456,121.8458,238.4457,0,U,20511,999,93731,.36136E-4,.313E-5,0
HST,1990-037B,2026-06-17T03:26:13.909056,15.30747004,.0001816,28.4720,80.8753,141.8279,218.2446,0,U,20580,999,78856,.17616E-3,.562E-4,0
SL-16 R/B,1990-046B,2026-06-17T02:08:57.297984,14.15026589,.0013351,70.9999,89.1530,161.9416,198.2184,0,U,20625,999,86245,.84629E-4,.116E-5,0
COSMOS 2084,1990-055A,2026-06-16T20:41:42.796896,15.06114812,.000558,62.7899,357.1999,278.3631,81.6837,0,U,20663,999,95125,.13175E-3,.1734E-4,0
SL-6 R/B(2),1990-055D,2026-06-16T15:36:34.057152,15.04001570,.0040577,62.7824,277.2032,5.0638,355.0864,0,U,20666,999,95307,.10535E-3,.128E-4,0
SL-8 R/B,1990-078B,2026-06-17T01:27:46.073088,14.92315027,.0350932,82.9013,161.7593,38.8925,323.6985,0,U,20775,999,82410,.62981E-3,.22339E-3,0
SL-8 R/B,1991-006B,2026-06-17T01:16:36.923232,13.77505838,.0023697,82.9425,96.1334,114.9116,256.1574,0,U,21088,999,77775,.38743E-4,.54E-6,0
OKEAN-3,1991-039A,2026-06-17T03:19:37.055712,15.05323888,.0014084,82.5157,240.4282,358.2998,1.8178,0,U,21397,999,87999,.16889E-3,.2449E-4,0
COSMOS 2151,1991-042A,2026-06-17T03:02:02.244768,15.00438188,.0013814,82.4960,347.7396,84.2278,276.0521,0,U,21422,999,87810,.103E-3,.1325E-4,0
SL-14 R/B,1991-042B,2026-06-17T03:40:13.118304,14.81902491,.0015416,82.4927,126.9276,274.9741,84.9713,0,U,21423,999,86780,.35347E-4,.303E-5,0
ERS-1,1991-050A,2026-06-17T00:37:08.865984,14.39517693,.0030708,98.7797,188.7199,267.4481,92.3190,0,U,21574,999,83002,.88725E-4,.231E-5,0
ARIANE 40 R/B,1991-050F,2026-06-17T01:10:35.702112,14.42957047,.0004247,98.1876,216.4713,121.8331,238.3274,0,U,21610,999,83332,.81612E-4,.231E-5,0
INTERCOSMOS 25,1991-086A,2026-06-16T22:43:17.116032,12.12195316,.1484021,82.6051,249.9553,262.9134,80.1493,0,U,21819,999,50871,.13921E-3,.698E-5,0
SL-8 R/B,1992-008B,2026-06-17T03:01:12.086112,13.75976948,.0033839,82.9262,193.8332,214.8614,206.2212,0,U,21876,999,72309,.11949E-3,.131E-5,0
SL-8 R/B,1992-020B,2026-06-17T01:03:15.613344,13.75548816,.0029738,82.9305,79.9638,22.9756,348.0013,0,U,21938,999,71479,.63478E-4,.77E-6,0
USA 81,1992-023A,2026-06-16T23:53:24.732960,14.32398117,.0002756,85.0075,74.1181,84.6617,275.4890,0,U,21949,999,10900,.47613E-4,.149E-5,0
COSMOS 2219,1992-076A,2026-06-17T01:10:46.267968,14.14098939,.0016593,71.0578,170.3603,44.4071,315.8378,0,U,22219,999,73242,.16482E-3,.267E-5,0
SL-16 R/B,1992-076B,2026-06-16T21:32:28.401216,14.16872130,.001465,71.0005,339.3913,299.0237,167.2300,0,U,22220,999,73588,.12118E-3,.195E-5,0
COSMOS 2221,1992-080A,2026-06-17T01:43:53.805792,14.96532903,.0013254,82.5030,183.8748,212.5872,147.4534,0,U,22236,999,79565,.99876E-4,.1163E-4,0
SL-16 R/B,1992-093B,2026-06-17T02:25:35.211072,14.15461261,.0003973,71.0197,155.5721,188.5181,171.5875,0,U,22285,999,72722,-.12878E-3,-.299E-5,0
COSMOS 2228,1992-094A,2026-06-17T03:42:28.880352,14.97586340,.0016896,82.5174,142.0740,332.4772,27.5554,0,U,22286,999,79094,.14103E-3,.1677E-4,0
SL-16 R/B,1993-016B,2026-06-17T00:15:07.280352,14.15314120,.0010206,71.0085,6.5786,183.7871,176.3176,0,U,22566,999,71622,.16149E-3,.267E-5,0
COSMOS 2242,1993-024A,2026-06-17T02:44:03.524352,14.96903136,.0015353,82.5179,171.6130,336.5891,23.4630,0,U,22626,999,79526,.11562E-3,.1356E-4,0
SL-16 R/B,1993-059B,2026-06-17T01:35:39.615936,14.17248297,.00152,70.9886,161.5582,54.1220,306.1312,0,U,22803,999,69361,-.10316E-4,-.69E-6,0
ARIANE 40 R/B,1993-061H,2026-06-17T01:34:39.965376,14.32907927,.0010449,98.4819,234.9252,356.5074,3.6036,0,U,22830,999,70833,.71756E-4,.153E-5,0
COSMOS 2278,1994-023A,2026-06-17T04:13:42.969792,14.14398174,.0010614,71.0549,326.9476,243.3000,116.7036,0,U,23087,999,65887,.69184E-4,.85E-6,0
SL-16 R/B,1994-023B,2026-06-16T21:29:05.362080,14.15025153,.0002785,70.9993,222.5445,186.7796,173.3289,0,U,23088,999,66012,.16248E-3,.267E-5,0
SL-16 R/B,1994-074B,2026-06-17T01:54:15.767424,14.79502266,.0005137,97.6990,194.8048,253.9370,165.4108,0,U,23343,999,70194,.50283E-4,.327E-5,0
SL-16 R/B,1994-077B,2026-06-17T04:35:36.686976,14.15572145,.0002917,70.9809,143.1535,327.8513,32.2431,0,U,23405,999,63031,.73854E-4,.97E-6,0
ARIANE 40+ R/B,1995-021B,2026-06-17T02:57:31.860288,14.39833326,.0006452,98.4412,238.1991,193.7933,224.4669,0,U,23561,999,63355,.81912E-4,.214E-5,0
SL-16 R/B,1995-058B,2026-06-16T20:23:47.160960,14.15508308,.0013754,71.0220,332.0666,320.9664,39.0466,0,U,23705,999,58188,.17133E-3,.288E-5,0
